H1 CPF 01  gfz 2021 03 31 00  5901 tandemx   
H2 1003001  6202 36605    2021 03 31 00 59 42 2021 04 05 00 00 42   120 1 1  0 0 0
H9
10 0 59308  71982.000000  0   -1857062.275     58354.627   6622043.319
10 0 59308  72102.000000  0   -2591293.419    541774.019   6348496.969
10 0 59308  72222.000000  0   -3271803.228   1028115.860   5963336.070
10 0 59308  72342.000000  0   -3886724.874   1507840.440   5473296.823
10 0 59308  72462.000000  0   -4425494.249   1971320.602   4886961.852
10 0 59308  72582.000000  0   -4879038.475   2409035.037   4214615.415
10 0 59308  72702.000000  0   -5239935.709   2811764.584   3468066.372
10 0 59308  72822.000000  0   -5502543.584   3170786.419   2660442.698
10 0 59308  72942.000000  0   -5663094.018   3478062.776   1805960.684
10 0 59308  73062.000000  0   -5719752.019   3726420.271    919670.896
10 0 59308  73182.000000  0   -5672634.061   3909713.048     17185.495
10 0 59308  73302.000000  0   -5523787.322   4022966.323   -885604.552
10 0 59308  73422.000000  0   -5277130.439   4062497.319  -1772818.229
10 0 59308  73542.000000  0   -4938355.823   4026009.847  -2628873.734
10 0 59308  73662.000000  0   -4514795.690   3912659.126  -3438768.770
10 0 59308  73782.000000  0   -4015257.560   3723086.473  -4188346.436
10 0 59308  73902.000000  0   -3449834.136   3459424.138  -4864540.922
10 0 59308  74022.000000  0   -2829692.562   3125270.436  -5455599.400
10 0 59308  74142.000000  0   -2166850.312   2725637.276  -5951277.393
10 0 59308  74262.000000  0   -1473939.342   2266870.799  -6343007.078
10 0 59308  74382.000000  0    -763964.480   1756546.226  -6624033.250
10 0 59308  74502.000000  0     -50062.235   1203341.427  -6789518.423
10 0 59308  74622.000000  0     654736.938    616889.968  -6836616.792
10 0 59308  74742.000000  0    1337740.555      7616.827  -6764519.413
10 0 59308  74862.000000  0    1986818.284   -613443.351  -6574465.994
10 0 59308  74982.000000  0    2590611.759  -1234840.740  -6269725.276
10 0 59308  75102.000000  0    3138730.427  -1844916.035  -5855545.106
10 0 59308  75222.000000  0    3621929.362  -2432013.810  -5339072.099
10 0 59308  75342.000000  0    4032268.994  -2984703.697  -4729240.522
10 0 59308  75462.000000  0    4363249.768  -3492003.216  -4036627.282
10 0 59308  75582.000000  0    4609920.263  -3943596.599  -3273278.701
10 0 59308  75702.000000  0    4768958.596  -4330047.440  -2452509.464
10 0 59308  75822.000000  0    4838722.878  -4642999.438  -1588674.485
10 0 59308  75942.000000  0    4819269.171  -4875360.720   -696918.370
10 0 59308  76062.000000  0    4712334.423  -5021466.215    207094.122
10 0 59308  76182.000000  0    4521285.142  -5077212.664   1107459.832
10 0 59308  76302.000000  0    4251033.393  -5040163.170   1988325.992
10 0 59308  76422.000000  0    3907919.971  -4909617.500   2834178.179
10 0 59308  76542.000000  0    3499570.476  -4686648.152   3630121.194
10 0 59308  76662.000000  0    3034726.257  -4374099.649   4362147.863
10 0 59308  76782.000000  0    2523055.521  -3976551.566   5017388.912
10 0 59308  76902.000000  0    1974949.576  -3500247.089   5584339.556
10 0 59308  77022.000000  0    1401308.663  -2952989.105   6053059.755
10 0 59308  77142.000000  0     813322.227  -2344005.638   6415343.417
10 0 59308  77262.000000  0     222248.967  -1683789.601   6664855.678
10 0 59308  77382.000000  0    -360798.934   -983915.132   6797237.317
10 0 59308  77502.000000  0    -925063.630   -256832.702   6810176.828
10 0 59308  77622.000000  0   -1460339.221    484352.804   6703447.956
10 0 59308  77742.000000  0   -1957155.826   1226117.848   6478913.238
10 0 59308  77862.000000  0   -2406947.132   1954766.075   6140493.476
10 0 59308  77982.000000  0   -2802199.008   2656680.715   5694103.574
10 0 59308  78102.000000  0   -3136576.969   3318580.268   5147555.457
10 0 59308  78222.000000  0   -3405031.258   3927772.514   4510427.666
10 0 59308  78342.000000  0   -3603876.273   4472402.810   3793902.802
10 0 59308  78462.000000  0   -3730842.699   4941691.112   3010574.336
10 0 59308  78582.000000  0   -3785100.854   5326152.340   2174225.209
10 0 59308  78702.000000  0   -3767253.993   5617793.233   1299582.053
10 0 59308  78822.000000  0   -3679302.356   5810282.008    402051.601
10 0 59308  78942.000000  0   -3524579.568   5899088.248   -502557.770
10 0 59308  79062.000000  0   -3307660.433   5881585.918  -1398324.941
10 0 59308  79182.000000  0   -3034243.412   5757116.708  -2269506.763
10 0 59308  79302.000000  0   -2711008.843   5527011.933  -3100822.260
10 0 59308  79422.000000  0   -2345461.124   5194575.789  -3877723.673
10 0 59308  79542.000000  0   -1945757.966   4765029.430  -4586652.011
10 0 59308  79662.000000  0   -1520530.121   4245417.815  -5215268.987
10 0 59308  79782.000000  0   -1078697.822   3644485.153  -5752664.119
10 0 59308  79902.000000  0    -629286.017   2972519.690  -6189535.894
10 0 59308  80022.000000  0    -181242.412   2241170.395  -6518342.015
10 0 59308  80142.000000  0     256736.772   1463242.109  -6733417.329
10 0 59308  80262.000000  0     676370.615    652472.224  -6831062.222
10 0 59308  80382.000000  0    1069946.315   -176708.312  -6809599.558
10 0 59308  80502.000000  0    1430457.217  -1009427.112  -6669399.597
10 0 59308  80622.000000  0    1751723.948  -1830630.126  -6412872.972
10 0 59308  80742.000000  0    2028498.558  -2625346.313  -6044434.252
10 0 59308  80862.000000  0    2256549.997  -3378955.151  -5570435.445
10 0 59308  80982.000000  0    2432729.927  -4077455.565  -4999068.098
10 0 59308  81102.000000  0    2555016.631  -4707727.557  -4340230.923
10 0 59308  81222.000000  0    2622536.298  -5257781.413  -3605369.119
10 0 59308  81342.000000  0    2635561.196  -5716993.547  -2807285.551
10 0 59308  81462.000000  0    2595484.786  -6076321.416  -1959923.519
10 0 59308  81582.000000  0    2504773.962  -6328492.711  -1078125.814
10 0 59308  81702.000000  0    2366898.027  -6468162.800   -177371.762
10 0 59308  81822.000000  0    2186235.400  -6492033.524    726500.716
10 0 59308  81942.000000  0    1967961.951  -6398933.220   1617580.356
10 0 59308  82062.000000  0    1717922.829  -6189854.086   2480173.084
10 0 59308  82182.000000  0    1442489.853  -5867943.743   3299087.242
10 0 59308  82302.000000  0    1148410.329  -5438454.245   4059907.727
10 0 59308  82422.000000  0     842650.077  -4908649.392   4749253.494
10 0 59308  82542.000000  0     532234.850  -4287674.367   5355014.886
10 0 59308  82662.000000  0     224093.354  -3586387.897   5866566.070
10 0 59308  82782.000000  0     -75092.709  -2817161.941   6274947.261
10 0 59308  82902.000000  0    -359029.877  -1993656.079   6573014.526
10 0 59308  83022.000000  0    -621942.047  -1130571.597   6755558.287
10 0 59308  83142.000000  0    -858685.662   -243387.266   6819390.111
10 0 59308  83262.000000  0   -1064849.118    651919.452   6763395.532
10 0 59308  83382.000000  0   -1236834.494   1539160.075   6588551.972
10 0 59308  83502.000000  0   -1371920.052   2402227.119   6297912.571
10 0 59308  83622.000000  0   -1468303.436   3225386.475   5896556.303
10 0 59308  83742.000000  0   -1525124.732   3993565.763   5391504.013
10 0 59308  83862.000000  0   -1542468.160   4692633.783   4791602.082
10 0 59308  83982.000000  0   -1521343.769   5309667.438   4107373.355
10 0 59308  84102.000000  0   -1463647.863   5833198.829   3350836.053
10 0 59308  84222.000000  0   -1372104.723   6253437.333   2535294.904
10 0 59308  84342.000000  0   -1250190.240   6562463.117   1675105.745
10 0 59308  84462.000000  0   -1102036.254   6754384.936    785417.868
10 0 59308  84582.000000  0    -932320.786   6825457.794   -118099.092
10 0 59308  84702.000000  0    -746146.309   6774160.007  -1019539.200
10 0 59308  84822.000000  0    -548908.545   6601223.936  -1903051.469
10 0 59308  84942.000000  0    -346160.428   6309618.142  -2753127.205
10 0 59308  85062.000000  0    -143475.182   5904486.152  -3554876.300
10 0 59308  85182.000000  0      53689.128   5393044.649  -4294289.414
10 0 59308  85302.000000  0     240120.459   4784442.737  -4958481.309
10 0 59308  85422.000000  0     410975.790   4089586.357  -5535910.184
10 0 59308  85542.000000  0     561893.461   3320932.461  -6016570.331
10 0 59308  85662.000000  0     689091.937   2492257.444  -6392155.026
10 0 59308  85782.000000  0     789453.827   1618406.256  -6656188.163
10 0 59308  85902.000000  0     860593.894    715027.112  -6804125.105
10 0 59308  86022.000000  0     900909.610   -201705.243  -6833422.844
10 0 59308  86142.000000  0     909614.057  -1115373.832  -6743578.651
10 0 59308  86262.000000  0     886750.265  -2009605.947  -6536135.941
10 0 59308  86382.000000  0     833187.755  -2868357.623  -6214660.939
99
